C/2021 C5 (PANSTARRS),e,50.7917,323.6734,270.9144,1780,0.0000131,0.99817878,0.0000,02/10.9958/2023,2000,g  9.0,4.0
# From MPEC 2022-YB4
C/2021 C6 (Lemmon),e,164.6042,332.3462,203.8203,3399,0.0000050,0.99903520,0.0000,11/12.3696/2021,2000,g 12.0,4.0
# From MPEC 2022-F14
C/2021 D1 (SWAN),e,31.3958,311.2318,72.3399,101.6758,0.0009613,0.99110153,0.0000,02/27.7112/2021,2000,g 13.0,4.0
# From MPEC 2023-J29
C/2021 D2 (ZTF),h,02/03.9020/2022,83.7902,305.6556,125.0351,1.001562,2.946887,2000,9.0,4.0
# From MPEC 2022-UY9
A/2021 E2,e,167.4898,190.7952,342.2947,210.8544,0.0003219,0.98917420,0.0000,12/09.8637/2020,2000,g 15.0,2.0
# From MPEC 2024-GJ3
C/2021 E3 (ZTF),h,06/11.7273/2022,112.5303,104.4833,228.8288,1.000449,1.777116,2000,8.5,4.0
# From MPEC 2023-SQ0
A/2021 E4,e,116.3645,171.1613,48.2667,524.1871,0.0000821,0.99107699,0.0000,04/24.9737/2022,2000,g 13.5,22.0
# From MPEC 2022-QD9
C/2021 F1 (Lemmon-PANSTARRS),e,107.3142,203.4838,146.8900,243.5038,0.0002594,0.99590263,0.0000,04/06.7680/2022,2000,g 13.5,4.0
# From MPEC 2021-J72
C/2021 G1 (Leonard),e,131.5491,270.6999,107.4375,72.21599,0.0016060,0.95257229,1.7052,06/17.0/2024,2000,g 14.0,4.0
# From MPEC 2024-LE0
C/2021 G2 (ATLAS),h,09/09.2530/2024,48.4741,221.0945,343.2838,1.000099,4.982366,2000,5.5,4.0
# From MPEC 2022-X67
C/2021 G3 (PANSTARRS),e,102.8694,147.3786,10.5801,10533,0.0000009,0.99950819,0.0000,10/17.8819/2021,2000,g 10.5,4.0
# From MPEC 2021-Y10
P/2021 HS (PANSTARRS),e,12.1557,262.3630,46.1405,4.194283,0.1147407,0.80950450,120.0504,06/17.0/2024,2000,g 22.0,4.0
# From MPEC 2022-C56
C/2021 J1 (Maury-Attard),e,92.7125,88.4146,147.2705,26.29257,0.0073106,0.93389434,8.8723,06/17.0/2024,2000,g 15.5,4.0
# From MPEC 2023-XP6
C/2021 J2 (PANSTARRS),e,156.2124,23.3287,171.9446,114.7754,0.0008016,0.95903191,0.8011,06/17.0/2024,2000,g 12.0,4.0
# From MPEC 2024-F34
P/2021 J3 (ATLAS),e,14.5229,111.0914,125.8147,8.909877,0.0370592,0.44901538,67.1592,06/17.0/2024,2000,g  7.0,4.0
# From MPEC 2022-O08
C/2021 K1 (ATLAS),e,16.2733,140.9165,184.2632,12.63948,0.0219336,0.80215040,25.0144,06/17.0/2024,2000,g 11.0,4.0
# From MPEC 2022-O01
C/2021 K2 (MASTER),h,09/09.6300/2021,100.8643,282.3220,343.3363,1.000877,5.468104,2000,8.0,4.0
# From MPEC 2022-L66
C/2021 K3 (Catalina),h,02/03.9318/2022,134.7783,114.5855,182.0512,1.004485,5.231299,2000,10.0,4.0
# From MPEC 2021-W31
P/2021 L2 (Leonard),e,21.0648,266.6539,51.4903,4.048416,0.1209975,0.52077301,128.1757,06/17.0/2024,2000,g 17.0,4.0
# From MPEC 2024-H50
C/2021 L3 (Borisov),h,02/14.7164/2022,78.5616,344.9987,91.6338,1.004530,8.458788,2000,6.0,4.0
# From MPEC 2022-TA0
P/2021 N1 (ZTF),e,11.4887,301.1471,21.2391,2.978848,0.1917042,0.67592786,212.2275,06/17.0/2024,2000,g 19.0,4.0
# From MPEC 2024-GJ3
P/2021 N2 (Fuls),e,13.0612,221.7319,177.5610,6.943655,0.0538669,0.45253700,50.9415,06/17.0/2024,2000,g  9.5,4.0
# From MPEC 2022-YB4
C/2021 N3 (PANSTARRS),e,26.7505,337.5044,304.7028,145.0488,0.0005642,0.96058872,0.7892,06/17.0/2024,2000,g  8.5,4.0
# From MPEC 2022-A21
C/2021 O1 (Nishimura),e,27.5931,41.5905,74.3900,2951,0.0000061,0.99973445,0.0000,08/14.3364/2021,2000,g 10.5,4.0
# From MPEC 2022-L66
C/2021 O3 (PANSTARRS),h,04/21.1285/2022,56.8022,188.9439,299.9603,1.000043,0.285926,2000,10.5,4.0
# From MPEC 2024-F34
C/2021 P1 (PANSTARRS),e,51.6332,359.6902,40.5040,2910,0.0000063,0.99849600,0.0000,06/02.6189/2022,2000,g 11.0,4.0
# From MPEC 2024-LE0
C/2021 P2 (PANSTARRS),e,150.0624,32.0838,76.7209,5843,0.0000022,0.99913237,0.0000,01/23.0143/2023,2000,g  9.0,4.0
# From MPEC 2024-GJ3
P/2021 P3 (PANSTARRS),e,27.1611,358.2454,334.0760,4.412442,0.1063373,0.33863347,118.5145,06/17.0/2024,2000,g 14.0,4.0
# From MPEC 2023-A50
C/2021 P4 (ATLAS),e,56.3304,348.0598,175.7947,296.3194,0.0001932,0.99635730,0.0000,07/30.3413/2022,2000,g  9.5,4.0
# From MPEC 2023-E68
P/2021 PE20 (ATLAS),e,20.0008,99.6256,210.4663,3.745958,0.1359439,0.66994466,150.4393,06/17.0/2024,2000,g 17.0,4.0
# From MPEC 2023-FK0
C/2021 Q3 (ATLAS),e,77.7355,307.9145,114.1210,75.58747,0.0014998,0.93112594,1.3089,06/17.0/2024,2000,g  8.0,4.0
# From MPEC 2024-LE0
C/2021 Q4 (Fuls),h,06/11.4804/2023,71.4892,183.3274,147.0718,1.002817,7.565462,2000,6.0,4.0
# From MPEC 2022-C56
P/2021 Q5 (ATLAS),e,10.7399,239.7572,180.9366,3.286894,0.1653962,0.62467121,168.8753,06/17.0/2024,2000,g 15.0,4.0
# From MPEC 2023-XP6
C/2021 Q6 (PANSTARRS),h,03/25.1636/2024,161.8438,133.5435,141.0350,1.001757,8.707861,2000,6.0,4.0
# From MPEC 2023-FK0
C/2021 QM45 (PANSTARRS),e,22.8140,354.5970,72.8638,392.7273,0.0001266,0.99293384,0.0000,08/13.6571/2022,2000,g 11.0,4.0
# From MPEC 2022-X67
P/2021 R1 (PANSTARRS),e,5.5225,143.2270,220.2194,8.292205,0.0412761,0.41085764,37.8329,06/17.0/2024,2000,g 11.0,4.0
# From MPEC 2022-X67
C/2021 R2 (PANSTARRS),e,134.4837,16.3102,32.5115,4553,0.0000032,0.99839306,0.0000,12/27.8722/2021,2000,g  7.5,4.0
# From MPEC 2021-W31
P/2021 R3 (PANSTARRS),e,19.9334,304.1939,2.6825,3.770839,0.1346006,0.33103814,150.5844,06/17.0/2024,2000,g 16.0,4.0
# From MPEC 2021-W31
P/2021 R4 (Wierzchos),e,21.0235,321.2941,56.7255,5.625697,0.0738651,0.58576212,72.1682,06/17.0/2024,2000,g 16.0,4.0
# From MPEC 2024-JU4
P/2021 R5 (Rankin),e,7.8545,219.9541,167.5520,4.796121,0.0938359,0.30642946,83.1636,06/17.0/2024,2000,g 12.0,4.0
# From MPEC 2021-W31
P/2021 R6 (Groeller),e,34.9129,176.1602,220.8267,6.285795,0.0625408,0.59336851,59.9642,06/17.0/2024,2000,g 14.5,4.0
# From MPEC 2022-X67
C/2021 R7 (PANSTARRS),e,158.8652,170.1724,140.3238,881.6684,0.0000376,0.99358914,0.0000,04/16.6843/2021,2000,g 10.5,4.0
# From MPEC 2021-Y10
P/2021 R8 (Sheppard),e,2.2032,167.0743,190.8360,3.019207,0.1878732,0.29297087,184.8152,06/17.0/2024,2000,g 18.5,4.0
# From MPEC 2023-J29
C/2021 S1 (ATLAS),h,03/01.5894/2022,52.0509,299.8687,148.2443,1.002636,6.121199,2000,7.0,4.0
# From MPEC 2024-LE0
C/2021 S3 (PANSTARRS),h,02/14.7073/2024,58.5329,215.6208,6.8519,1.000239,1.320189,2000,5.5,4.0
# From MPEC 2024-GJ3
C/2021 S4 (Tsuchinshan),e,17.4782,5.4788,72.9441,161.8565,0.0004786,0.95866992,0.0794,06/17.0/2024,2000,g  6.5,4.0
# From MPEC 2022-OB6
C/2021 T1 (Lemmon),e,140.3615,56.8443,51.5664,1998,0.0000110,0.99846813,0.0000,10/14.4349/2021,2000,g 12.5,4.0
# From MPEC 2023-A50
C/2021 T2 (Fuls),h,06/08.0844/2022,117.5375,223.2327,263.5803,1.000519,1.246466,2000,12.0,4.0
# From MPEC 2024-LE0
C/2021 T4 (Lemmon),e,160.7782,257.8887,329.8143,21477,0.0000003,0.99993095,0.0000,07/31.5418/2023,2000,g  7.5,4.0
# From MPEC 2022-ED3
P/2021 U1 (Wierzchos),e,30.5519,246.7901,145.1768,8.534508,0.0395309,0.71297952,39.1305,06/17.0/2024,2000,g 14.5,4.0
# From MPEC 2022-L66
P/2021 U3 (Attard-Maury),e,69.9620,75.0946,335.2834,4.195299,0.1146990,0.54976253,110.8086,06/17.0/2024,2000,g 15.5,4.0
# From MPEC 2021-W31
C/2021 U4 (Leonard),e,152.8897,241.8086,237.3358,45.26239,0.0032367,0.96047644,2.9384,06/17.0/2024,2000,g 17.0,4.0
# From MPEC 2022-WQ9
C/2021 U5 (Catalina),e,39.0443,182.7285,321.4266,218.0658,0.0003061,0.98917638,0.0000,01/26.7048/2022,2000,g 13.0,4.0
# From MPEC 2022-CN4
C/2021 V1 (Rankin),e,71.4513,207.6734,195.1767,681.2487,0.0000554,0.99557220,0.0000,04/30.5931/2022,2000,g 13.0,4.0
# From MPEC 2024-JU4
P/2021 V2 (Fuls),e,12.6949,232.2755,259.8589,9.077272,0.0360389,0.61479602,18.4660,06/17.0/2024,2000,g 10.0,4.0
# From MPEC 2024-LE0
C/2021 X1 (Maury-Attard),h,05/27.1486/2023,140.0993,10.5936,334.5702,1.000268,3.233604,2000,7.0,4.0
# From MPEC 2024-E08
C/2021 X2 (Bok),h,07/08.1392/2022,137.1608,228.8245,193.3277,1.001024,2.996219,2000,13.0,4.0
# From MPEC 2024-GJ3
C/2021 Y1 (ATLAS),h,04/30.7726/2023,77.1945,244.7669,245.8360,1.001230,2.032560,2000,7.0,4.0
# From MPEC 2022-YN2
C/2022 A1 (Sarneczky),e,116.5427,285.5051,201.2472,353.9218,0.0001480,0.99645548,0.0000,01/31.0479/2022,2000,g 18.0,4.0
# From MPEC 2024-L77
C/2022 A2 (PANSTARRS),h,02/18.2180/2023,108.1359,171.5846,88.3680,1.000218,1.735495,2000,9.5,4.0
# From MPEC 2024-JU4
C/2022 A3 (Lemmon-ATLAS),e,88.3412,325.4718,234.8534,859.3523,0.0000391,0.99569012,0.0000,09/28.8771/2023,2000,g  8.0,4.0
# From MPEC 2022-K19
P/2022 B1 (Wierzchos),e,10.9908,325.4240,148.8785,5.467403,0.0770961,0.65342670,64.9453,06/17.0/2024,2000,g 16.5,4.0
# From MPEC 2022-YB4
A/2022 B3,e,132.0535,286.1872,150.6949,684.6316,0.0000550,0.99459470,0.0000,01/17.1164/2022,2000,g 16.5,2.0
# From MPEC 2022-GA9
C/2022 B4 (Bok),e,20.0480,340.5904,152.9574,386.9910,0.0001295,0.99644198,0.0000,01/30.1020/2022,2000,g 21.0,4.0
# From MPEC 2023-J29
P/2022 BV9 (Lemmon),e,11.9286,337.3106,16.3224,4.363682,0.1081246,0.23414704,144.0585,06/17.0/2024,2000,g  9.5,4.0
# From MPEC 2023-J29
P/2022 C1 (PANSTARRS),e,4.7624,113.1146,9.3783,7.228365,0.0507159,0.44880658,48.4452,06/17.0/2024,2000,g 12.0,4.0
# From MPEC 2023-VM5
P/2022 C2 (PANSTARRS),e,9.9831,135.2606,89.2065,6.036059,0.0664621,0.44184594,45.2603,06/17.0/2024,2000,g 12.5,4.0
# From MPEC 2023-UR6
P/2022 C3 (PANSTARRS),e,12.8211,139.0407,93.8653,9.621813,0.0330232,0.54552327,23.6946,06/17.0/2024,2000,g 11.5,4.0
# From MPEC 2022-K19
P/2022 D1 (PANSTARRS),e,44.0773,47.9582,88.6551,7.403590,0.0489261,0.54762513,50.0877,06/17.0/2024,2000,g 12.5,4.0
# From MPEC 2022-K19
C/2022 D2 (Kowalski),e,22.6658,312.4055,177.8068,377.2269,0.0001345,0.99588270,0.0000,03/27.7465/2022,2000,g 17.0,4.0
# From MPEC 2022-L66
P/2022 E1 (Christensen),e,19.0071,113.3450,114.9909,3.778869,0.1341718,0.22062678,99.0222,06/17.0/2024,2000,g 13.5,4.0
# From MPEC 2024-JU4
C/2022 E2 (ATLAS),h,09/14.1154/2024,137.1265,125.3709,41.7179,1.000867,3.666299,2000,5.0,4.0
# From MPEC 2024-GJ3
C/2022 E3 (ZTF),h,01/12.7015/2023,109.1687,302.5444,145.8090,1.000047,1.112545,2000,7.5,4.0
# From MPEC 2024-GJ3
C/2022 F1 (ATLAS),e,57.9866,350.6416,278.2936,4014,0.0000039,0.99851135,0.0000,08/05.1952/2022,2000,g  7.0,4.0
# From MPEC 2022-QD9
C/2022 F2 (NEOWISE),e,97.3138,58.7832,200.6214,23.94681,0.0084107,0.93364881,6.8711,06/17.0/2024,2000,g 14.5,4.0
# From MPEC 2024-JU4
C/2022 H1 (PANSTARRS),e,49.8608,6.3498,246.3035,891.8634,0.0000370,0.99137781,0.0000,01/19.0679/2024,2000,g  6.0,4.0
# From MPEC 2022-VC5
